{
    "links": {
        "self": "http://www.neowsapp.com/rest/v1/neo/3561030?api_key=iIulBulltgU6a56xZRHN4H3l9WmuAYTsLGpBGhQ2"
    },
    "id": "3561030",
    "neo_reference_id": "3561030",
    "name": "(2011 FT53)",
    "designation": "2011 FT53",
    "nasa_jpl_url": "http://ssd.jpl.nasa.gov/sbdb.cgi?sstr=3561030",
    "absolute_magnitude_h": 25.3,
    "estimated_diameter": {
        "kilometers": {
            "estimated_diameter_min": 0.0231502122,
            "estimated_diameter_max": 0.0517654482
        },
        "meters": {
            "estimated_diameter_min": 23.150212221,
            "estimated_diameter_max": 51.7654482198
        },
        "miles": {
            "estimated_diameter_min": 0.0143848705,
            "estimated_diameter_max": 0.0321655483
        },
        "feet": {
            "estimated_diameter_min": 75.9521422633,
            "estimated_diameter_max": 169.8341531374
        }
    },
    "is_potentially_hazardous_asteroid": false,
    "close_approach_data": [
        {
            "close_approach_date": "2011-04-09",
            "close_approach_date_full": "2011-Apr-09 20:20",
            "epoch_date_close_approach": 1302380400000,
            "relative_velocity": {
                "kilometers_per_second": "9.666708862",
                "kilometers_per_hour": "34800.1519030255",
                "miles_per_hour": "21623.4610532994"
            },
            "miss_distance": {
                "astronomical": "0.0154174755",
                "lunar": "5.9973979695",
                "kilometers": "2306421.495577185",
                "miles": "1433143.861587753"
            },
            "orbiting_body": "Earth"
        },
        {
            "close_approach_date": "2014-03-28",
            "close_approach_date_full": "2014-Mar-28 04:40",
            "epoch_date_close_approach": 1395981600000,
            "relative_velocity": {
                "kilometers_per_second": "12.4772124656",
                "kilometers_per_hour": "44917.9648762684",
                "miles_per_hour": "27910.276564368"
            },
            "miss_distance": {
                "astronomical": "0.104516662",
                "lunar": "40.656981518",
                "kilometers": "15635470.01470994",
                "miles": "9715430.556639572"
            },
            "orbiting_body": "Earth"
        },
        {
            "close_approach_date": "2017-03-17",
            "close_approach_date_full": "2017-Mar-17 14:18",
            "epoch_date_close_approach": 1489760280000,
            "relative_velocity": {
                "kilometers_per_second": "16.5397910108",
                "kilometers_per_hour": "59543.2476389657",
                "miles_per_hour": "36997.8585121118"
            },
            "miss_distance": {
                "astronomical": "0.2376434412",
                "lunar": "92.4432986268",
                "kilometers": "35550952.622990244",
                "miles": "22090337.6173596072"
            },
            "orbiting_body": "Earth"
        },
        {
            "close_approach_date": "2020-03-09",
            "close_approach_date_full": "2020-Mar-09 06:54",
            "epoch_date_close_approach": 1583736840000,
            "relative_velocity": {
                "kilometers_per_second": "20.660416747",
                "kilometers_per_hour": "74377.5002891359",
                "miles_per_hour": "46215.2862213245"
            },
            "miss_distance": {
                "astronomical": "0.3778937095",
                "lunar": "147.0006529955",
                "kilometers": "56532094.027598765",
                "miles": "35127414.348902357"
            },
            "orbiting_body": "Earth"
        }
    ],
    "orbital_data": {
        "orbit_id": "10",
        "orbit_determination_date": "2017-04-06 08:53:55",
        "first_observation_date": "2011-03-30",
        "last_observation_date": "2011-04-13",
        "data_arc_in_days": 14,
        "observations_used": 37,
        "orbit_uncertainty": "7",
        "minimum_orbit_intersection": ".0180467",
        "jupiter_tisserand_invariant": "3.579",
        "epoch_osculation": "2459000.5",
        "eccentricity": ".5314079614697393",
        "semi_major_axis": "2.069352356567791",
        "inclination": "5.126020364107718",
        "ascending_node_longitude": "190.38506582",
        "orbital_period": "1087.301771959344",
        "perihelion_distance": ".9696820392015",
        "perihelion_argument": "38.20626770468628",
        "aphelion_distance": "3.169022673934082",
        "perihelion_time": "2458949.676608326500",
        "mean_anomaly": "16.8273624437209",
        "mean_motion": ".3310948342807088",
        "equinox": "J2000",
        "orbit_class": {
            "orbit_class_type": "APO",
            "orbit_class_description": "Near-Earth asteroid orbits which cross the Earth’s orbit similar to that of 1862 Apollo",
            "orbit_class_range": "a (semi-major axis) > 1.0 AU; q (perihelion) < 1.017 AU"
        }
    },
    "is_sentry_object": false
}